AOR-E (EGNOS/PRN 120)   
1 24307U 96053A   09187.12169902 -.00000120  00000-0  10000-3 0  9004
2 24307   0.0672 337.4089 0005892 126.0958 209.0486  1.00272377 46976
IOR-W (EGNOS/PRN 126)   
1 25153U 98006B   09188.71493280  .00000143  00000-0  10000-3 0  6392
2 25153   0.4820 358.5261 0004039 115.2192  94.1419  1.00273508 41873
ARTEMIS (EGNOS/PRN 124) 
1 26863U 01029A   09188.00464795  .00000122  00000-0  10000-3 0  7265
2 26863   7.4977  68.8527 0003020  45.3206 193.9371  1.00271180 30345
MTSAT-1R (MSAS/PRN 129) 
1 28622U 05006A   09187.21737463 -.00000278  00000-0  10000-3 0  2095
2 28622   0.0463 158.4695 0002193 151.3846 192.7832  1.00270567 15945
ANIK F1R (WAAS/PRN 138) 
1 28868U 05036A   09187.49236295 -.00000072  00000-0  00000+0 0  6942
2 28868   0.0190  88.6561 0002297 352.6057 273.2767  1.00272789 14089
GALAXY 15 (WAAS/PRN 135)
1 28884U 05041A   09187.57963422  .00000081  00000-0  10000-3 0  6577
2 28884   0.0165  22.2890 0003107  68.6430 269.4160  1.00273253 13684
MTSAT-2 (MSAS/PRN 137)  
1 28937U 06004A   09188.39128527 -.00000240  00000-0  10000-3 0  5944
2 28937   0.0411 267.7155 0003181 159.4897 144.1090  1.00274441 12438
